STARLINK-34055          
1 63819U 25092R   26060.46482751  .00030099  00000+0  10985-2 0  9991
2 63819  42.9984 219.2393 0001142 277.7663  82.3059 15.27591068 47350
STARLINK-33794          
1 63820U 25092S   26060.45840405  .00024110  00000+0  88244-3 0  9997
2 63820  42.9970 219.2122 0001324 282.9228  77.1476 15.27592870 47351
STARLINK-34047          
1 63821U 25092T   26060.45454940  .00025459  00000+0  93107-3 0  9994
2 63821  42.9960 219.1817 0002232 278.1793  81.8806 15.27594426 47408
STARLINK-34094          
1 63822U 25092U   26060.39992498  .00039331  00000+0  14304-2 0  9998
2 63822  43.0016 216.1457 0002652 284.9009  75.1549 15.27595034 47430
STARLINK-34043          
1 63823U 25092V   26060.46772950  .00030218  00000+0  11026-2 0  9999
2 63823  43.0011 214.9289 0002871 285.2836  74.7699 15.27592492 47403
STARLINK-34025          
1 63824U 25092W   26060.41728240  .00031899  00000+0  11629-2 0  9993
2 63824  43.0028 218.9046 0001148 255.7413 104.3311 15.27601730 47290
STARLINK-33874          
1 63825U 25092X   26060.44940244  .00040934  00000+0  14873-2 0  9991
2 63825  42.9994 219.1449 0004461 289.0726  70.9643 15.27605714 47404
STARLINK-33781          
1 63826U 25092Y   26060.46740302  .00037349  00000+0  13588-2 0  9995
2 63826  42.9994 219.2769 0002720 286.3861  73.6692 15.27604442 47408
STARLINK-33891          
1 63827U 25092Z   26060.47381993  .00014783  00000+0  54549-3 0  9994
2 63827  42.9990 219.3237 0001780 272.2716  87.7932 15.27588052 47292
STARLINK-33903          
1 63828U 25092AA  26060.44426887  .00045792  00000+0  16617-2 0  9991
2 63828  43.0000 219.1021 0001901 272.6420  87.4214 15.27610144 47408
STARLINK-33889          
1 63829U 25092AB  26060.49552120  .00033890  00000+0  12348-2 0  9990
2 63829  43.0025 218.6390 0001714 274.8751  85.1905 15.27597182 47309
STARLINK-33984          
1 63830U 25092AC  26060.43784331  .00025917  00000+0  94746-3 0  9991
2 63830  42.9981 219.0536 0001345 293.7762  66.2948 15.27599087 47357
STARLINK-33940          
1 63831U 25092AD  26060.44812588  .00044160  00000+0  16035-2 0  9994
2 63831  42.9964 219.1353 0002592 281.2136  78.8425 15.27603268 47401
STARLINK-33978          
1 63832U 25092AE  26060.49809516  .00040305  00000+0  14647-2 0  9991
2 63832  43.0023 218.6580 0003124 290.4231  69.6285 15.27611730 47412
STARLINK-34018          
1 63836U 25093A   26060.20861873  .00029889  00000+0  10904-2 0  9995
2 63836  43.0014 125.9311 0001965 271.7120  88.3507 15.27606415 46674
STARLINK-34053          
1 63837U 25093B   26060.20605080  .00040396  00000+0  14685-2 0  9998
2 63837  42.9990 125.9052 0001036 256.1057 103.9679 15.27601187 46612
