[{"OBJECT_NAME":"STARLINK-34055","OBJECT_ID":"2025-092R","EPOCH":"2026-03-01T11:09:21.096864","MEAN_MOTION":15.27591068,"ECCENTRICITY":0.0001142,"INCLINATION":42.9984,"RA_OF_ASC_NODE":219.2393,"ARG_OF_PERICENTER":277.7663,"MEAN_ANOMALY":82.3059,"EPHEMERIS_TYPE":0,"CLASSIFICATION_TYPE":"U","NORAD_CAT_ID":63819,"ELEMENT_SET_NO":999,"REV_AT_EPOCH":4735,"BSTAR":0.0010985,"MEAN_MOTION_DOT":0.00030099,"MEAN_MOTION_DDOT":0},{"OBJECT_NAME":"STARLINK-33794","OBJECT_ID":"2025-092S","EPOCH":"2026-03-01T11:00:06.109920","MEAN_MOTION":15.2759287,"ECCENTRICITY":0.0001324,"INCLINATION":42.997,"RA_OF_ASC_NODE":219.2122,"ARG_OF_PERICENTER":282.9228,"MEAN_ANOMALY":77.1476,"EPHEMERIS_TYPE":0,"CLASSIFICATION_TYPE":"U","NORAD_CAT_ID":63820,"ELEMENT_SET_NO":999,"REV_AT_EPOCH":4735,"BSTAR":0.00088244,"MEAN_MOTION_DOT":0.0002411,"MEAN_MOTION_DDOT":0},{"OBJECT_NAME":"STARLINK-34047","OBJECT_ID":"2025-092T","EPOCH":"2026-03-01T10:54:33.068160","MEAN_MOTION":15.27594426,"ECCENTRICITY":0.0002232,"INCLINATION":42.996,"RA_OF_ASC_NODE":219.1817,"ARG_OF_PERICENTER":278.1793,"MEAN_ANOMALY":81.8806,"EPHEMERIS_TYPE":0,"CLASSIFICATION_TYPE":"U","NORAD_CAT_ID":63821,"ELEMENT_SET_NO":999,"REV_AT_EPOCH":4740,"BSTAR":0.00093107,"MEAN_MOTION_DOT":0.00025459,"MEAN_MOTION_DDOT":0},{"OBJECT_NAME":"STARLINK-34094","OBJECT_ID":"2025-092U","EPOCH":"2026-03-01T09:35:53.518272","MEAN_MOTION":15.27595034,"ECCENTRICITY":0.0002652,"INCLINATION":43.0016,"RA_OF_ASC_NODE":216.1457,"ARG_OF_PERICENTER":284.9009,"MEAN_ANOMALY":75.1549,"EPHEMERIS_TYPE":0,"CLASSIFICATION_TYPE":"U","NORAD_CAT_ID":63822,"ELEMENT_SET_NO":999,"REV_AT_EPOCH":4743,"BSTAR":0.0014304,"MEAN_MOTION_DOT":0.00039331,"MEAN_MOTION_DDOT":0},{"OBJECT_NAME":"STARLINK-34043","OBJECT_ID":"2025-092V","EPOCH":"2026-03-01T11:13:31.828800","MEAN_MOTION":15.27592492,"ECCENTRICITY":0.0002871,"INCLINATION":43.0011,"RA_OF_ASC_NODE":214.9289,"ARG_OF_PERICENTER":285.2836,"MEAN_ANOMALY":74.7699,"EPHEMERIS_TYPE":0,"CLASSIFICATION_TYPE":"U","NORAD_CAT_ID":63823,"ELEMENT_SET_NO":999,"REV_AT_EPOCH":4740,"BSTAR":0.0011026,"MEAN_MOTION_DOT":0.00030218,"MEAN_MOTION_DDOT":0},{"OBJECT_NAME":"STARLINK-34025","OBJECT_ID":"2025-092W","EPOCH":"2026-03-01T10:00:53.199360","MEAN_MOTION":15.2760173,"ECCENTRICITY":0.0001148,"INCLINATION":43.0028,"RA_OF_ASC_NODE":218.9046,"ARG_OF_PERICENTER":255.7413,"MEAN_ANOMALY":104.3311,"EPHEMERIS_TYPE":0,"CLASSIFICATION_TYPE":"U","NORAD_CAT_ID":63824,"ELEMENT_SET_NO":999,"REV_AT_EPOCH":4729,"BSTAR":0.0011629,"MEAN_MOTION_DOT":0.00031899,"MEAN_MOTION_DDOT":0},{"OBJECT_NAME":"STARLINK-33874","OBJECT_ID":"2025-092X","EPOCH":"2026-03-01T10:47:08.370816","MEAN_MOTION":15.27605714,"ECCENTRICITY":0.0004461,"INCLINATION":42.9994,"RA_OF_ASC_NODE":219.1449,"ARG_OF_PERICENTER":289.0726,"MEAN_ANOMALY":70.9643,"EPHEMERIS_TYPE":0,"CLASSIFICATION_TYPE":"U","NORAD_CAT_ID":63825,"ELEMENT_SET_NO":999,"REV_AT_EPOCH":4740,"BSTAR":0.0014873,"MEAN_MOTION_DOT":0.00040934,"MEAN_MOTION_DDOT":0},{"OBJECT_NAME":"STARLINK-33781","OBJECT_ID":"2025-092Y","EPOCH":"2026-03-01T11:13:03.620928","MEAN_MOTION":15.27604442,"ECCENTRICITY":0.000272,"INCLINATION":42.9994,"RA_OF_ASC_NODE":219.2769,"ARG_OF_PERICENTER":286.3861,"MEAN_ANOMALY":73.6692,"EPHEMERIS_TYPE":0,"CLASSIFICATION_TYPE":"U","NORAD_CAT_ID":63826,"ELEMENT_SET_NO":999,"REV_AT_EPOCH":4740,"BSTAR":0.0013588,"MEAN_MOTION_DOT":0.00037349,"MEAN_MOTION_DDOT":0},{"OBJECT_NAME":"STARLINK-33891","OBJECT_ID":"2025-092Z","EPOCH":"2026-03-01T11:22:18.041952","MEAN_MOTION":15.27588052,"ECCENTRICITY":0.000178,"INCLINATION":42.999,"RA_OF_ASC_NODE":219.3237,"ARG_OF_PERICENTER":272.2716,"MEAN_ANOMALY":87.7932,"EPHEMERIS_TYPE":0,"CLASSIFICATION_TYPE":"U","NORAD_CAT_ID":63827,"ELEMENT_SET_NO":999,"REV_AT_EPOCH":4729,"BSTAR":0.00054549,"MEAN_MOTION_DOT":0.00014783,"MEAN_MOTION_DDOT":0},{"OBJECT_NAME":"STARLINK-33903","OBJECT_ID":"2025-092AA","EPOCH":"2026-03-01T10:39:44.830368","MEAN_MOTION":15.27610144,"ECCENTRICITY":0.0001901,"INCLINATION":43,"RA_OF_ASC_NODE":219.1021,"ARG_OF_PERICENTER":272.642,"MEAN_ANOMALY":87.4214,"EPHEMERIS_TYPE":0,"CLASSIFICATION_TYPE":"U","NORAD_CAT_ID":63828,"ELEMENT_SET_NO":999,"REV_AT_EPOCH":4740,"BSTAR":0.0016617,"MEAN_MOTION_DOT":0.00045792,"MEAN_MOTION_DDOT":0},{"OBJECT_NAME":"STARLINK-33889","OBJECT_ID":"2025-092AB","EPOCH":"2026-03-01T11:53:33.031680","MEAN_MOTION":15.27597182,"ECCENTRICITY":0.0001714,"INCLINATION":43.0025,"RA_OF_ASC_NODE":218.639,"ARG_OF_PERICENTER":274.8751,"MEAN_ANOMALY":85.1905,"EPHEMERIS_TYPE":0,"CLASSIFICATION_TYPE":"U","NORAD_CAT_ID":63829,"ELEMENT_SET_NO":999,"REV_AT_EPOCH":4730,"BSTAR":0.0012348,"MEAN_MOTION_DOT":0.0003389,"MEAN_MOTION_DDOT":0},{"OBJECT_NAME":"STARLINK-33984","OBJECT_ID":"2025-092AC","EPOCH":"2026-03-01T10:30:29.661984","MEAN_MOTION":15.27599087,"ECCENTRICITY":0.0001345,"INCLINATION":42.9981,"RA_OF_ASC_NODE":219.0536,"ARG_OF_PERICENTER":293.7762,"MEAN_ANOMALY":66.2948,"EPHEMERIS_TYPE":0,"CLASSIFICATION_TYPE":"U","NORAD_CAT_ID":63830,"ELEMENT_SET_NO":999,"REV_AT_EPOCH":4735,"BSTAR":0.00094746,"MEAN_MOTION_DOT":0.00025917,"MEAN_MOTION_DDOT":0},{"OBJECT_NAME":"STARLINK-33940","OBJECT_ID":"2025-092AD","EPOCH":"2026-03-01T10:45:18.076032","MEAN_MOTION":15.27603268,"ECCENTRICITY":0.0002592,"INCLINATION":42.9964,"RA_OF_ASC_NODE":219.1353,"ARG_OF_PERICENTER":281.2136,"MEAN_ANOMALY":78.8425,"EPHEMERIS_TYPE":0,"CLASSIFICATION_TYPE":"U","NORAD_CAT_ID":63831,"ELEMENT_SET_NO":999,"REV_AT_EPOCH":4740,"BSTAR":0.0016035,"MEAN_MOTION_DOT":0.0004416,"MEAN_MOTION_DDOT":0},{"OBJECT_NAME":"STARLINK-33978","OBJECT_ID":"2025-092AE","EPOCH":"2026-03-01T11:57:15.421824","MEAN_MOTION":15.2761173,"ECCENTRICITY":0.0003124,"INCLINATION":43.0023,"RA_OF_ASC_NODE":218.658,"ARG_OF_PERICENTER":290.4231,"MEAN_ANOMALY":69.6285,"EPHEMERIS_TYPE":0,"CLASSIFICATION_TYPE":"U","NORAD_CAT_ID":63832,"ELEMENT_SET_NO":999,"REV_AT_EPOCH":4741,"BSTAR":0.0014647,"MEAN_MOTION_DOT":0.00040305,"MEAN_MOTION_DDOT":0},{"OBJECT_NAME":"STARLINK-34018","OBJECT_ID":"2025-093A","EPOCH":"2026-03-01T05:00:24.658272","MEAN_MOTION":15.27606415,"ECCENTRICITY":0.0001965,"INCLINATION":43.0014,"RA_OF_ASC_NODE":125.9311,"ARG_OF_PERICENTER":271.712,"MEAN_ANOMALY":88.3507,"EPHEMERIS_TYPE":0,"CLASSIFICATION_TYPE":"U","NORAD_CAT_ID":63836,"ELEMENT_SET_NO":999,"REV_AT_EPOCH":4667,"BSTAR":0.0010904,"MEAN_MOTION_DOT":0.00029889,"MEAN_MOTION_DDOT":0},{"OBJECT_NAME":"STARLINK-34053","OBJECT_ID":"2025-093B","EPOCH":"2026-03-01T04:56:42.789120","MEAN_MOTION":15.27601187,"ECCENTRICITY":0.0001036,"INCLINATION":42.999,"RA_OF_ASC_NODE":125.9052,"ARG_OF_PERICENTER":256.1057,"MEAN_ANOMALY":103.9679,"EPHEMERIS_TYPE":0,"CLASSIFICATION_TYPE":"U","NORAD_CAT_ID":63837,"ELEMENT_SET_NO":999,"REV_AT_EPOCH":4661,"BSTAR":0.0014685,"MEAN_MOTION_DOT":0.00040396,"MEAN_MOTION_DDOT":0}]
